     2.01           GLONASS NAV DATA                        RINEX VERSION / TYPE
CCRINEXG V1.4 UX    CDDIS               02-JAN-15 15:33     PGM / RUN BY / DATE 
IGS BROADCAST EPHEMERIS FILE                                COMMENT             
teqc  2009Mar23                         20150102  0:19:     COMMENT             
  2015     1     1   -0.000000000000D+00                    CORR TO SYSTEM TIME 
    16                                                      LEAP SECONDS        
                                                            END OF HEADER       
14 15  1  1 15 15  0.0 0.113985501230D-03 0.454747350886D-11 0.540000000000D+05
    0.516984765625D+04 0.313478088379D+01 0.000000000000D+00 0.000000000000D+00
   -0.987544580078D+04 0.248915672302D+00-0.372529029846D-08-0.700000000000D+01
   -0.229631884766D+05 0.592689514160D+00 0.000000000000D+00 0.000000000000D+00
15 15  1  1 15 15  0.0 0.360216945410D-04 0.909494701773D-12 0.540000000000D+05
   -0.131862250977D+05 0.264130401611D+01 0.186264514923D-08 0.000000000000D+00
   -0.999303759766D+04 0.382879257202D+00-0.279396772385D-08 0.000000000000D+00
   -0.194404628906D+05-0.197723960876D+01 0.931322574616D-09 0.000000000000D+00
16 15  1  1 15 15  0.0-0.274376943708D-04 0.909494701773D-12 0.540000000000D+05
   -0.249389711914D+05 0.444503784180D+00 0.186264514923D-08 0.000000000000D+00
   -0.388779248047D+04 0.224804878235D+00-0.000000000000D+00-0.100000000000D+01
   -0.340230371094D+04-0.355047130585D+01 0.000000000000D+00 0.000000000000D+00
17 15  1  1 15 15  0.0 0.143693760037D-03 0.909494701773D-12 0.540300000000D+05
    0.112448701172D+05 0.440710067749D+00 0.000000000000D+00 0.000000000000D+00
   -0.216521342773D+05-0.928117752075D+00-0.279396772385D-08 0.400000000000D+01
    0.740438525391D+04-0.339860725403D+01-0.279396772385D-08 0.000000000000D+00
18 15  1  1 15 15  0.0 0.320617109537D-04 0.181898940355D-11 0.540300000000D+05
   -0.105376513672D+04 0.155967235565D+01 0.000000000000D+00 0.000000000000D+00
   -0.151032124023D+05-0.234018707275D+01 0.000000000000D+00-0.300000000000D+01
    0.205612280273D+05-0.163419437408D+01-0.279396772385D-08 0.000000000000D+00
19 15  1  1 15 15  0.0-0.114357098937D-03-0.909494701773D-12 0.540000000000D+05
   -0.137554067383D+05 0.179273509979D+01 0.000000000000D+00 0.000000000000D+00
    0.201397119141D+04-0.231886672974D+01 0.279396772385D-08 0.300000000000D+01
    0.213890864258D+05 0.137062072754D+01-0.931322574616D-09 0.000000000000D+00
20 15  1  1 15 15  0.0-0.150638632476D-03-0.181898940355D-11 0.540000000000D+05
   -0.172409936523D+05 0.868875503540D+00 0.000000000000D+00 0.000000000000D+00
    0.165170224609D+05-0.878244400024D+00 0.372529029846D-08 0.200000000000D+01
    0.891594287109D+04 0.331371974945D+01 0.931322574616D-09 0.000000000000D+00
21 15  1  1 15 15  0.0-0.729970633984D-05 0.181898940355D-11 0.540000000000D+05
   -0.113323486328D+05-0.432982444763D+00 0.000000000000D+00 0.000000000000D+00
    0.217003134766D+05 0.905950546265D+00 0.372529029846D-08 0.400000000000D+01
   -0.722389257812D+04 0.339686775207D+01 0.279396772385D-08 0.250000000000D+02
22 15  1  1 15 15  0.0 0.148455612361D-03 0.000000000000D+00 0.540000000000D+05
    0.981454101562D+03-0.156447887421D+01-0.000000000000D+00 0.000000000000D+00
    0.150768198242D+05 0.234144306183D+01 0.000000000000D+00-0.300000000000D+01
   -0.205080278320D+05 0.165827369690D+01 0.279396772385D-08 0.000000000000D+00
23 15  1  1 15 15  0.0-0.697714276612D-03-0.363797880709D-11 0.540000000000D+05
    0.131360541992D+05-0.178450202942D+01-0.000000000000D+00 0.000000000000D+00
   -0.920418945312D+03 0.240226840973D+01-0.279396772385D-08 0.300000000000D+01
   -0.218507036133D+05-0.117487239838D+01 0.931322574616D-09 0.000000000000D+00
24 15  1  1 15 15  0.0-0.119477510452D-03-0.000000000000D+00 0.540000000000D+05
    0.171811342773D+05-0.100571250916D+01-0.000000000000D+00 0.000000000000D+00
   -0.153662622070D+05 0.112058925629D+01-0.372529029846D-08 0.200000000000D+01
   -0.109476342773D+05-0.315727806091D+01-0.931322574616D-09 0.000000000000D+00
25 15  1  1 15 15  0.0-0.113938003778D-04 0.272848410532D-11 0.540000000000D+05
    0.132558496094D+05 0.198331832886D+00 0.000000000000D+00 0.100000000000D+01
   -0.213866088867D+05-0.603878974915D+00-0.279396772385D-08-0.600000000000D+01
    0.441380078125D+04-0.351558589935D+01-0.279396772385D-08 0.000000000000D+00
 1 15  1  1 15 45  0.0-0.157442875207D-03 0.000000000000D+00 0.558300000000D+05
    0.166974843750D+05 0.102653312683D+01-0.186264514923D-08 0.000000000000D+00
    0.147124863281D+05 0.137055110931D+01 0.372529029846D-08 0.100000000000D+01
    0.124778964844D+05-0.298644542694D+01 0.000000000000D+00 0.000000000000D+00
 2 15  1  1 15 45  0.0 0.111451372504D-03 0.181898940355D-11 0.558300000000D+05
    0.117906601562D+05 0.169867134094D+01-0.931322574616D-09 0.000000000000D+00
   -0.144925537109D+04 0.257787227631D+01 0.186264514923D-08-0.400000000000D+01
    0.225977666016D+05-0.724532127380D+00-0.186264514923D-08 0.000000000000D+00
 3 15  1  1 15 45  0.0 0.321539118886D-04 0.909494701773D-12 0.558300000000D+05
    0.126420410156D+03 0.133780193329D+01 0.000000000000D+00 0.000000000000D+00
   -0.168190517578D+05 0.225793170929D+01 0.000000000000D+00 0.500000000000D+01
    0.192156000977D+05 0.196846771240D+01-0.279396772385D-08 0.000000000000D+00
 4 15  1  1 15 45  0.0 0.103732571006D-03 0.909494701773D-12 0.558300000000D+05
   -0.117842749023D+05 0.189337730408D+00 0.931322574616D-09 0.000000000000D+00
   -0.222050878906D+05 0.585682868957D+00-0.279396772385D-08 0.600000000000D+01
    0.435494433594D+04 0.350370311737D+01-0.186264514923D-08 0.000000000000D+00
 5 15  1  1 15 45  0.0-0.548548996449D-06 0.000000000000D+00 0.558000000000D+05
   -0.167158652344D+05-0.103762149811D+01 0.931322574616D-09 0.000000000000D+00
   -0.145354145508D+05-0.138893127441D+01-0.279396772385D-08 0.100000000000D+01
   -0.126560039062D+05 0.296987819672D+01-0.000000000000D+00 0.000000000000D+00
 6 15  1  1 15 45  0.0 0.600852072239D-04 0.000000000000D+00 0.558000000000D+05
   -0.115939189453D+05-0.170250225067D+01 0.931322574616D-09 0.000000000000D+00
    0.225089208984D+04-0.258086204529D+01-0.186264514923D-08-0.400000000000D+01
   -0.226320532227D+05 0.613398551941D+00 0.186264514923D-08 0.000000000000D+00
 7 15  1  1 15 45  0.0-0.111774541438D-03-0.909494701773D-12 0.558300000000D+05
   -0.239208984375D+01-0.133572959900D+01 0.000000000000D+00 0.000000000000D+00
    0.168988647461D+05-0.225360298157D+01 0.000000000000D+00 0.500000000000D+01
   -0.190757641602D+05-0.199510478973D+01 0.279396772385D-08 0.000000000000D+00
 8 15  1  1 15 45  0.0-0.260267406702D-04 0.000000000000D+00 0.558300000000D+05
    0.115844653320D+05-0.214169502258D+00-0.931322574616D-09 0.000000000000D+00
    0.222484189453D+05-0.626366615295D+00 0.279396772385D-08 0.600000000000D+01
   -0.465276660156D+04-0.349321174622D+01 0.279396772385D-08 0.000000000000D+00
 9 15  1  1 15 45  0.0-0.719353556633D-05 0.909494701773D-12 0.558000000000D+05
   -0.240065366211D+05-0.102666378021D+01 0.186264514923D-08 0.000000000000D+00
    0.444411816406D+04 0.228293418884D+00 0.931322574616D-09-0.200000000000D+01
    0.755441796875D+04-0.338024902344D+01 0.000000000000D+00 0.000000000000D+00
10 15  1  1 15 45  0.0 0.445917248726D-05 0.000000000000D+00 0.558000000000D+05
   -0.113691962891D+05-0.283003711700D+01 0.931322574616D-09 0.000000000000D+00
    0.969401025391D+04 0.213941574097D+00 0.372529029846D-08-0.700000000000D+01
    0.206393696289D+05-0.166488552093D+01-0.000000000000D+00 0.000000000000D+00
11 15  1  1 15 45  0.0-0.176951289177D-05 0.000000000000D+00 0.558300000000D+05
    0.805932470703D+04-0.303457832336D+01-0.931322574616D-09 0.000000000000D+00
    0.975512304688D+04 0.761404037476D-01 0.372529029846D-08 0.000000000000D+00
    0.221367646484D+05 0.107916545868D+01-0.931322574616D-09 0.000000000000D+00
12 15  1  1 15 45  0.0-0.104364007711D-04 0.181898940355D-11 0.558300000000D+05
    0.231356542969D+05-0.140096378326D+01-0.186264514923D-08 0.000000000000D+00
    0.386034375000D+04-0.128617286682D+00 0.931322574616D-09-0.100000000000D+01
    0.101932377930D+05 0.320718193054D+01-0.931322574616D-09 0.000000000000D+00
13 15  1  1 15 45  0.0-0.466254539788D-03-0.909494701773D-12 0.558300000000D+05
    0.238496362305D+05 0.105301666260D+01-0.186264514923D-08 0.000000000000D+00
   -0.465541113281D+04-0.253589630127D+00-0.186264514923D-08-0.200000000000D+01
   -0.777225585938D+04 0.338759613037D+01 0.000000000000D+00 0.000000000000D+00
14 15  1  1 15 45  0.0 0.113993883133D-03 0.454747350886D-11 0.558000000000D+05
    0.106212016602D+05 0.287132453919D+01-0.000000000000D+00 0.000000000000D+00
   -0.985754492188D+04-0.217632293701D+00-0.372529029846D-08-0.700000000000D+01
   -0.210246806641D+05 0.154710292816D+01 0.000000000000D+00 0.000000000000D+00
15 15  1  1 15 45  0.0 0.360235571861D-04 0.909494701773D-12 0.558000000000D+05
   -0.802418457031D+04 0.304682731628D+01 0.931322574616D-09 0.000000000000D+00
   -0.966864111328D+04-0.419340133667D-01-0.372529029846D-08 0.000000000000D+00
   -0.222034130859D+05-0.107253360748D+01 0.931322574616D-09 0.000000000000D+00
16 15  1  1 15 45  0.0-0.274358317256D-04 0.909494701773D-12 0.558000000000D+05
   -0.233419638672D+05 0.131597805023D+01 0.186264514923D-08 0.000000000000D+00
   -0.354388769531D+04 0.117083549500D+00-0.931322574616D-09-0.100000000000D+01
   -0.957811425781D+04-0.326685047150D+01 0.000000000000D+00 0.000000000000D+00
17 15  1  1 15 45  0.0 0.143695622683D-03 0.909494701773D-12 0.558300000000D+05
    0.115245815430D+05-0.100358009338D+00 0.000000000000D+00 0.000000000000D+00
   -0.227095776367D+05-0.216963768005D+00-0.372529029846D-08 0.400000000000D+01
    0.107932275391D+04-0.358354568481D+01-0.186264514923D-08 0.000000000000D+00
